OBJECT_NAME,OBJECT_ID,EPOCH,MEAN_MOTION,ECCENTRICITY,INCLINATION,RA_OF_ASC_NODE,ARG_OF_PERICENTER,MEAN_ANOMALY,EPHEMERIS_TYPE,CLASSIFICATION_TYPE,NORAD_CAT_ID,ELEMENT_SET_NO,REV_AT_EPOCH,BSTAR,MEAN_MOTION_DOT,MEAN_MOTION_DDOT
STARLINK-5067,2023-021AB,2025-08-18T03:01:31.332576,14.98331935,0.0003047,70.0005,337.548,270.1956,89.8854,0,U,55653,999,13800,1.0447e-05,3.2e-07,0.0
STARLINK-5070,2023-021AC,2025-08-17T17:06:43.339968,14.9833093,0.0003229,70.0015,338.9154,270.3741,89.7048,0,U,55654,999,13823,6.2795e-05,6.56e-06,0.0
STARLINK-5267,2023-021AD,2025-08-17T16:24:19.649664,14.98329318,0.0002988,70.0009,318.9398,268.878,91.2037,0,U,55655,999,13871,-4.4308e-06,-1.46e-06,0.0
STARLINK-5326,2023-021AE,2025-08-17T17:18:42.368544,14.98329665,0.0003298,70.0014,338.5409,268.8766,91.2015,0,U,55656,999,13824,1.1134e-05,4e-07,0.0
STARLINK-5328,2023-021AF,2025-08-16T16:35:11.865120,14.97706009,0.0003553,70.0009,321.4963,217.277,142.8143,0,U,55657,999,13857,-0.0068245,-0.00079323,0.0
STARLINK-5307,2023-021AG,2025-08-17T17:36:44.138880,14.98331133,0.000327,70.0015,338.5843,268.989,91.0894,0,U,55658,999,13824,4.5525e-05,4.5e-06,0.0
STARLINK-5477,2023-021AH,2025-08-17T14:54:13.600800,14.98320539,0.0003698,69.9993,319.1217,273.1549,86.9187,0,U,55659,999,13870,2.0691e-07,-9.1e-07,0.0
STARLINK-5467,2023-021AJ,2025-08-18T05:43:25.125600,14.98325873,0.0003363,69.9998,317.2728,268.5596,91.5178,0,U,55660,999,13851,4.5568e-05,4.51e-06,0.0
STARLINK-5475,2023-021AK,2025-08-17T04:54:02.524896,14.97849933,0.0004764,70.0003,320.0753,104.8894,255.2792,0,U,55661,999,13865,-0.0051088,-0.00059798,0.0
STARLINK-5479,2023-021AL,2025-08-17T15:54:22.565952,14.99138533,0.0003216,70.0001,318.49,271.0368,89.0423,0,U,55662,999,13873,8.5977e-05,9.54e-06,0.0
STARLINK-5473,2023-021AM,2025-08-18T04:43:56.844480,14.97931857,0.0007173,70.0001,317.5206,98.2944,261.9029,0,U,55663,999,13850,-0.0043417,-0.0005102,0.0
STARLINK-5480,2023-021AN,2025-08-17T16:18:18.785376,14.98330884,0.000336,70.0007,318.9239,270.8892,89.1882,0,U,55664,999,13872,3.7062e-05,3.49e-06,0.0
STARLINK-5474,2023-021AP,2025-08-17T12:36:00.460512,14.98323106,0.0003438,70.0001,319.189,267.9365,92.14,0,U,55665,999,13840,-3.8666e-05,-5.54e-06,0.0
STARLINK-5456,2023-021AR,2025-08-17T15:30:13.567968,14.98333725,0.000312,69.9999,318.8087,268.764,91.3161,0,U,55667,999,13872,6.4002e-05,6.71e-06,0.0
STARLINK-5455,2023-021AS,2025-08-17T16:12:18.277056,14.98329625,0.00032,70.0009,318.9104,270.6165,89.4627,0,U,55668,999,13872,2.6986e-05,2.29e-06,0.0
STARLINK-5459,2023-021AT,2025-08-17T16:00:26.851680,14.98288711,0.0002164,70.0004,318.8802,267.7833,92.3078,0,U,55669,999,13871,-6.2501e-05,-8.38e-06,0.0
STARLINK-5423,2023-021AU,2025-08-17T23:42:57.412800,14.9831584,0.0002495,70.0029,317.9935,269.7442,90.3431,0,U,55670,999,13847,9.5665e-05,1.048e-05,0.0
STARLINK-5460,2023-021AV,2025-08-17T15:12:28.230912,14.98331062,0.0003184,70.0003,319.1564,269.4484,90.631,0,U,55671,999,13871,3.2683e-05,2.97e-06,0.0
STARLINK-5463,2023-021AX,2025-08-17T15:36:14.770944,14.98337679,0.0003278,70.0001,318.8201,270.4635,89.6148,0,U,55673,999,13872,-6.8331e-06,-1.75e-06,0.0
STARLINK-5462,2023-021AY,2025-08-17T15:24:12.953376,14.98333376,0.0003121,70.0,318.7922,269.8224,90.2577,0,U,55674,999,13872,2.241e-05,1.74e-06,0.0
STARLINK-5232,2023-021AZ,2025-08-17T15:12:11.544480,14.98331466,0.0003342,70.0002,318.7658,270.0648,90.0128,0,U,55675,999,13872,4.8173e-05,4.82e-06,0.0
STARLINK-5300,2023-021BA,2025-08-17T15:36:09.105696,14.98331238,0.0003163,69.9996,298.9509,266.4946,93.5851,0,U,55676,999,13921,6.6656e-05,7.02e-06,0.0
STARLINK-5324,2023-021BB,2025-08-17T21:42:26.008416,14.98327715,0.0003595,69.9992,298.2309,262.05,98.0251,0,U,55677,999,13925,1.3228e-05,6.5e-07,0.0
ZHONGXING-26,2023-023A,2025-08-17T13:27:28.843200,1.00268665,0.0002377,0.0716,79.2667,51.4788,162.3817,0,U,55686,999,918,0.0,-3.62e-06,0.0
HORUS 1,2023-025A,2025-08-18T03:37:41.761056,15.23230362,0.0001942,97.3803,305.5072,158.5667,201.5652,0,U,55690,999,13791,0.00023116,5.403e-05,0.0
STARLINK-5592,2023-028A,2025-08-17T20:19:59.414016,14.98328984,0.0002997,70.0006,38.5326,268.7067,91.3749,0,U,55741,999,13569,-1.434e-05,-2.64e-06,0.0
STARLINK-5594,2023-028B,2025-08-18T04:26:27.281472,14.9891925,0.0010667,70.0005,37.7036,251.0838,108.9166,0,U,55742,999,13555,-0.011285,-0.00134409,0.0
STARLINK-5602,2023-028C,2025-08-17T20:32:01.025088,14.98337928,0.0003179,70.0003,38.5623,267.8362,92.2433,0,U,55743,999,13550,9.5201e-05,1.043e-05,0.0
STARLINK-5601,2023-028D,2025-08-18T04:00:03.000096,14.98340633,0.0002789,70.0018,37.7521,271.6188,347.8828,0,U,55744,999,13554,-0.002449,-0.000292,0.0
STARLINK-5579,2023-028F,2025-08-17T21:20:04.708032,14.98337496,0.0003,70.0006,38.2771,267.8005,92.2811,0,U,55746,999,13551,3.0503e-05,2.71e-06,0.0
STARLINK-5539,2023-028G,2025-08-17T21:44:05.892000,14.98333304,0.0003031,70.0007,38.3356,268.2633,91.8179,0,U,55747,999,13551,5.7483e-05,5.93e-06,0.0
STARLINK-5580,2023-028H,2025-08-17T21:38:06.363456,14.98325512,0.0003489,70.0002,38.3208,271.0158,89.0602,0,U,55748,999,13551,-4.1964e-05,-5.94e-06,0.0
STARLINK-5573,2023-028K,2025-08-17T21:32:04.718976,14.9833271,0.0003109,70.0006,38.3063,268.353,91.7273,0,U,55750,999,13551,5.2609e-05,5.35e-06,0.0
STARLINK-5577,2023-028L,2025-08-17T21:50:06.890208,14.98327357,0.0002336,70.0004,38.3496,272.6442,87.445,0,U,55751,999,13551,0.00012877,1.444e-05,0.0
STARLINK-5613,2023-028M,2025-08-17T20:56:01.008096,14.98333974,0.0003015,70.0005,38.2172,267.7916,92.2898,0,U,55752,999,13551,-5.1848e-05,-7.12e-06,0.0
STARLINK-5617,2023-028N,2025-08-17T21:20:17.725920,14.98331046,0.0002692,70.0005,38.2785,271.0814,89.0037,0,U,55753,999,13551,2.9313e-05,2.57e-06,0.0
STARLINK-5612,2023-028P,2025-08-17T21:08:01.838976,14.98334711,0.0003098,69.9994,38.2461,269.6132,90.4672,0,U,55754,999,13551,7.0966e-05,7.54e-06,0.0
STARLINK-5619,2023-028Q,2025-08-17T20:50:15.456480,14.98329683,0.0003071,70.0004,38.1949,268.8033,91.2774,0,U,55755,999,13551,4.4882e-05,4.43e-06,0.0
STARLINK-5614,2023-028R,2025-08-17T20:43:59.613024,14.98339933,0.0003278,70.0003,38.1859,273.5861,86.4923,0,U,55756,999,13551,3.7592e-05,3.56e-06,0.0
STARLINK-5544,2023-028S,2025-08-17T21:14:03.375456,14.98339493,0.0003112,70.0005,38.2616,270.7287,89.3516,0,U,55757,999,13551,-1.8875e-05,-3.18e-06,0.0
STARLINK-5072,2023-028T,2025-08-17T21:02:01.763520,14.98329319,0.0003148,70.0003,38.2318,268.6887,91.3912,0,U,55758,999,13551,2.9651e-05,2.61e-06,0.0
STARLINK-5532,2023-028V,2025-08-17T20:37:59.426112,14.98332658,0.0003055,70.0002,38.1719,259.9913,100.0902,0,U,55760,999,13551,-8.3834e-05,-1.093e-05,0.0
STARLINK-5611,2023-028W,2025-08-17T20:07:52.867776,14.98332567,0.0003078,70.001,18.6231,269.6291,90.4516,0,U,55761,999,13599,3.9717e-05,3.81e-06,0.0
STARLINK-5603,2023-028X,2025-08-17T18:13:28.767072,14.9833033,0.0003069,70.0011,18.7453,268.4765,91.6042,0,U,55762,999,13598,2.2395e-05,1.74e-06,0.0
STARLINK-5593,2023-028Y,2025-08-17T20:50:00.247488,14.98334472,0.000308,70.0004,38.2017,269.7714,90.3092,0,U,55763,999,13551,-7.9791e-06,-1.88e-06,0.0
STARLINK-5499,2023-028Z,2025-08-17T19:55:37.412832,14.9833217,0.0002826,70.0011,18.5917,268.9436,91.1399,0,U,55764,999,13599,4.1018e-05,3.97e-06,0.0
STARLINK-5595,2023-028AA,2025-08-17T20:01:37.896096,14.98332441,0.0003175,70.0012,18.6062,269.5834,90.4961,0,U,55765,999,13599,2.4418e-05,1.98e-06,0.0
STARLINK-5599,2023-028AB,2025-08-18T03:26:14.801568,14.98339705,0.0003245,70.001,17.6751,264.4855,95.5934,0,U,55766,999,13603,1.6158e-05,1e-06,0.0
STARLINK-5606,2023-028AC,2025-08-17T18:31:30.644544,14.983321,0.0003163,70.0011,18.7897,267.6554,92.4243,0,U,55767,999,13597,-4.2832e-07,-9.8e-07,0.0
STARLINK-5584,2023-028AE,2025-08-17T19:37:36.560928,14.98326517,0.0003041,70.001,18.5467,268.5998,91.4813,0,U,55769,999,13599,6.6894e-05,7.05e-06,0.0
STARLINK-5557,2023-028AF,2025-08-17T17:55:26.693472,14.98331394,0.0003064,70.0011,18.7005,269.6329,90.4479,0,U,55770,999,13598,-1.447e-06,-1.1e-06,0.0
STARLINK-5591,2023-028AG,2025-08-18T03:20:13.811136,14.98329346,0.0003198,70.001,17.6605,266.7529,93.3264,0,U,55771,999,13604,3.6338e-05,3.41e-06,0.0
STARLINK-5835,2023-028AH,2025-08-17T20:31:53.084928,14.98330553,0.0003583,70.001,18.276,265.6491,94.4259,0,U,55772,999,13600,1.9571e-05,1.4e-06,0.0
STARLINK-5833,2023-028AJ,2025-08-17T19:43:35.999616,14.98336533,0.0003187,70.0012,18.5595,269.1351,90.9443,0,U,55773,999,13599,-3.3567e-05,-4.94e-06,0.0
STARLINK-5812,2023-028AK,2025-08-18T03:14:14.055360,14.98325084,0.0003228,70.0009,17.6454,269.7712,90.3077,0,U,55774,999,13604,-2.3154e-05,-3.69e-06,0.0
STARLINK-5809,2023-028AL,2025-08-17T19:07:31.908576,14.98332447,0.0003434,70.0012,18.4727,268.5188,91.5578,0,U,55775,999,13599,4.209e-05,4.09e-06,0.0
STARLINK-5810,2023-028AM,2025-08-17T20:13:37.785216,14.98331378,0.0003316,70.001,18.2328,264.7825,95.2956,0,U,55776,999,13600,8.1191e-05,8.76e-06,0.0
STARLINK-5814,2023-028AN,2025-08-17T20:31:39.028512,14.98331466,0.0002196,70.001,18.2746,260.6154,99.4756,0,U,55777,999,13600,5.6003e-05,5.75e-06,0.0
STARLINK-5816,2023-028AP,2025-08-17T20:25:39.258912,14.98332554,0.0002097,70.0011,18.2607,264.4956,95.5964,0,U,55778,999,13600,7.5531e-05,8.08e-06,0.0
STARLINK-5817,2023-028AQ,2025-08-18T02:07:46.724736,14.9833111,0.000278,70.0018,357.6052,273.3766,86.7075,0,U,55779,999,13653,-5.3928e-06,-1.57e-06,0.0
STARLINK-5819,2023-028AR,2025-08-17T20:19:37.463232,14.98333693,0.0003136,70.0011,18.2467,266.9239,93.1561,0,U,55780,999,13600,4.178e-05,4.06e-06,0.0
STARLINK-5820,2023-028AS,2025-08-17T19:01:31.539360,14.98332496,0.0003215,70.0009,18.4911,270.6717,89.4074,0,U,55781,999,13599,1.665e-05,1.06e-06,0.0
STARLINK-5826,2023-028AT,2025-08-17T21:13:29.574912,14.98394977,0.0005081,70.0077,358.5056,234.2423,125.8264,0,U,55782,999,13649,0.0014131,0.00016839,0.0
STARLINK-5825,2023-028AU,2025-08-16T08:22:53.992992,14.97930079,0.0003234,70.0014,2.3749,103.9102,256.2416,0,U,55783,999,13626,-0.0043016,-0.00050527,0.0
